STARLINK-32400          
1 61669U 24193J   26068.46592596 -.00004872  00000+0 -15270-3 0  9995
2 61669  53.1604  89.8226 0001045  79.4954 280.6164 15.30157214 76528
AL MUNTHER              
1 63240U 25052AG  26068.64540749  .00017933  00000+0  65015-3 0  9992
2 63240  97.4001 323.9152 0008027 130.7043 229.4895 15.28381521 54798
